{"type": "FeatureCollection", "features": [ {"type": "Feature", "properties": {"norad_id": 36267, "name": "FENGYUN 1C DEB", "group": "fengyun-1c-debris", "lat": -21.799294074979862, "lon": -71.04907762336792, "alt_km": 884.7880755074211, "timestamp": "2025-12-03T15:48:03.358193+00:00", "meta": {"OBJECT_NAME": "FENGYUN 1C DEB", "OBJECT_ID": "1999-025DWU", "EPOCH": "2025-11-30T19:52:05.469312", "MEAN_MOTION": 14.09025042, "ECCENTRICITY": 0.01270184, "INCLINATION": 98.5575, "RA_OF_ASC_NODE": 282.8095, "ARG_OF_PERICENTER": 244.8225, "MEAN_ANOMALY": 141.9466, "EPHEMERIS_TYPE": 0, "CLASSIFICATION_TYPE": "U", "NORAD_CAT_ID": 36267, "ELEMENT_SET_NO": 999, "REV_AT_EPOCH": 86362, "BSTAR": 0.0011045203, "MEAN_MOTION_DOT": 2.02e-05, "MEAN_MOTION_DDOT": 0}, "tle": {"line1": "1 36267U 99025DWU 25334.82784108  .00002020  00000+0  11045-2 0  9990", "line2": "2 36267  98.5575 282.8095 0127018 244.8225 141.9466 14.09025042863628"}}, "geometry": {"type": "Point", "coordinates": [-71.04907762336792, -21.799294074979862]}}, {"type": "Feature", "properties": {"norad_id": 36269, "name": "FENGYUN 1C DEB", "group": "fengyun-1c-debris", "lat": -40.01240760049412, "lon": 91.49975552038629, "alt_km": 791.5710641245769, "timestamp": "2025-12-03T15:48:03.358202+00:00", "meta": {"OBJECT_NAME": "FENGYUN 1C DEB", "OBJECT_ID": "1999-025DWW", "EPOCH": "2025-12-01T13:56:45.691296", "MEAN_MOTION": 14.26937631, "ECCENTRICITY": 0.02337858, "INCLINATION": 99.1061, "RA_OF_ASC_NODE": 277.0743, "ARG_OF_PERICENTER": 312.1017, "MEAN_ANOMALY": 46.0492, "EPHEMERIS_TYPE": 0, "CLASSIFICATION_TYPE": "U", "NORAD_CAT_ID": 36269, "ELEMENT_SET_NO": 999, "REV_AT_EPOCH": 87557, "BSTAR": 0.0011932552, "MEAN_MOTION_DOT": 3.82e-05, "MEAN_MOTION_DDOT": 0}, "tle": {"line1": "1 36269U 99025DWW 25335.58108439  .00003820  00000+0  11933-2 0  9998", "line2": "2 36269  99.1061 277.0743 0233785 312.1017  46.0492 14.26937631875576"}}, "geometry": {"type": "Point", "coordinates": [91.49975552038629, -40.01240760049412]}}, {"type": "Feature", "properties": {"norad_id": 36272, "name": "FENGYUN 1C DEB", "group": "fengyun-1c-debris", "lat": -80.51959973340242, "lon": -40.90428638049464, "alt_km": 732.5200526186609, "timestamp": "2025-12-03T15:48:03.358211+00:00", "meta": {"OBJECT_NAME": "FENGYUN 1C DEB", "OBJECT_ID": "1999-025DWZ", "EPOCH": "2025-11-16T09:05:49.301376", "MEAN_MOTION": 14.17162339, "ECCENTRICITY": 0.01691484, "INCLINATION": 99.1396, "RA_OF_ASC_NODE": 195.9187, "ARG_OF_PERICENTER": 342.9224, "MEAN_ANOMALY": 16.6299, "EPHEMERIS_TYPE": 0, "CLASSIFICATION_TYPE": "U", "NORAD_CAT_ID": 36272, "ELEMENT_SET_NO": 999, "REV_AT_EPOCH": 63243, "BSTAR": 0.00092343066, "MEAN_MOTION_DOT": 2.094e-05, "MEAN_MOTION_DDOT": 0}, "tle": {"line1": "1 36272U 99025DWZ 25320.37904284  .00002094  00000+0  92343-3 0  9992", "line2": "2 36272  99.1396 195.9187 0169148 342.9224  16.6299 14.17162339632432"}}, "geometry": {"type": "Point", "coordinates": [-40.90428638049464, -80.51959973340242]}}, {"type": "Feature", "properties": {"norad_id": 36274, "name": "FENGYUN 1C DEB", "group": "fengyun-1c-debris", "lat": 63.81783819718829, "lon": 32.357123650946626, "alt_km": 851.7341213797472, "timestamp": "2025-12-03T15:48:03.358220+00:00", "meta": {"OBJECT_NAME": "FENGYUN 1C DEB", "OBJECT_ID": "1999-025DXB", "EPOCH": "2025-12-01T11:15:57.514752", "MEAN_MOTION": 14.2323099, "ECCENTRICITY": 0.00617273, "INCLINATION": 99.1394, "RA_OF_ASC_NODE": 49.1975, "ARG_OF_PERICENTER": 261.9358, "MEAN_ANOMALY": 114.0582, "EPHEMERIS_TYPE": 0, "CLASSIFICATION_TYPE": "U", "NORAD_CAT_ID": 36274, "ELEMENT_SET_NO": 999, "REV_AT_EPOCH": 62825, "BSTAR": 0.0033837593, "MEAN_MOTION_DOT": 7.766e-05, "MEAN_MOTION_DDOT": 0}, "tle": {"line1": "1 36274U 99025DXB 25335.46941568  .00007766  00000+0  33838-2 0  9990", "line2": "2 36274  99.1394  49.1975 0061727 261.9358 114.0582 14.23230990628258"}}, "geometry": {"type": "Point", "coordinates": [32.357123650946626, 63.81783819718829]}}, {"type": "Feature", "properties": {"norad_id": 36278, "name": "FENGYUN 1C DEB", "group": "fengyun-1c-debris", "lat": 48.920540776110876, "lon": 86.33116791992651, "alt_km": 874.1031785575524, "timestamp": "2025-12-03T15:48:03.358228+00:00", "meta": {"OBJECT_NAME": "FENGYUN 1C DEB", "OBJECT_ID": "1999-025DXF", "EPOCH": "2025-11-25T12:20:55.957056", "MEAN_MOTION": 14.17329318, "ECCENTRICITY": 0.00617636, "INCLINATION": 99.1226, "RA_OF_ASC_NODE": 247.3547, "ARG_OF_PERICENTER": 339.8905, "MEAN_ANOMALY": 19.9836, "EPHEMERIS_TYPE": 0, "CLASSIFICATION_TYPE": "U", "NORAD_CAT_ID": 36278, "ELEMENT_SET_NO": 999, "REV_AT_EPOCH": 93232, "BSTAR": 0.00056943864, "MEAN_MOTION_DOT": 1.126e-05, "MEAN_MOTION_DDOT": 0}, "tle": {"line1": "1 36278U 99025DXF 25329.51453654  .00001126  00000+0  56944-3 0  9995", "line2": "2 36278  99.1226 247.3547 0061763 339.8905  19.9836 14.17329318932323"}}, "geometry": {"type": "Point", "coordinates": [86.33116791992651, 48.920540776110876]}}, {"type": "Feature", "properties": {"norad_id": 36279, "name": "FENGYUN 1C DEB", "group": "fengyun-1c-debris", "lat": -60.130983548146645, "lon": 120.83275223613045, "alt_km": 893.2824792438732, "timestamp": "2025-12-03T15:48:03.358237+00:00", "meta": {"OBJECT_NAME": "FENGYUN 1C DEB", "OBJECT_ID": "1999-025DXG", "EPOCH": "2025-11-25T16:33:32.008320", "MEAN_MOTION": 14.14714647, "ECCENTRICITY": 0.00629921, "INCLINATION": 98.56, "RA_OF_ASC_NODE": 308.3956, "ARG_OF_PERICENTER": 103.3746, "MEAN_ANOMALY": 257.4461, "EPHEMERIS_TYPE": 0, "CLASSIFICATION_TYPE": "U", "NORAD_CAT_ID": 36279, "ELEMENT_SET_NO": 999, "REV_AT_EPOCH": 88798, "BSTAR": 0.00016006279, "MEAN_MOTION_DOT": 2.73e-06, "MEAN_MOTION_DDOT": 0}, "tle": {"line1": "1 36279U 99025DXG 25329.68995380  .00000273  00000+0  16006-3 0  9998", "line2": "2 36279  98.5600 308.3956 0062992 103.3746 257.4461 14.14714647887981"}}, "geometry": {"type": "Point", "coordinates": [120.83275223613045, -60.130983548146645]}}, {"type": "Feature", "properties": {"norad_id": 36280, "name": "FENGYUN 1C DEB", "group": "fengyun-1c-debris", "lat": 78.35971845155865, "lon": -41.63377561479134, "alt_km": 807.5090927161409, "timestamp": "2025-12-03T15:48:03.358247+00:00", "meta": {"OBJECT_NAME": "FENGYUN 1C DEB", "OBJECT_ID": "1999-025DXH", "EPOCH": "2025-12-02T19:47:23.057952", "MEAN_MOTION": 14.09689517, "ECCENTRICITY": 0.00636593, "INCLINATION": 98.7683, "RA_OF_ASC_NODE": 6.0758, "ARG_OF_PERICENTER": 93.3379, "MEAN_ANOMALY": 80.0221, "EPHEMERIS_TYPE": 0, "CLASSIFICATION_TYPE": "U", "NORAD_CAT_ID": 36280, "ELEMENT_SET_NO": 999, "REV_AT_EPOCH": 86214, "BSTAR": 0.0011452484, "MEAN_MOTION_DOT": 2.005e-05, "MEAN_MOTION_DDOT": 0}, "tle": {"line1": "1 36280U 99025DXH 25336.82457243  .00002005  00000+0  11452-2 0  9999", "line2": "2 36280  98.7683   6.0758 0063659  93.3379  80.0221 14.09689517862145"}}, "geometry": {"type": "Point", "coordinates": [-41.63377561479134, 78.35971845155865]}}, {"type": "Feature", "properties": {"norad_id": 36281, "name": "FENGYUN 1C DEB", "group": "fengyun-1c-debris", "lat": -22.058441376160907, "lon": 76.29089984128588, "alt_km": 954.3209601087292, "timestamp": "2025-12-03T15:48:03.358257+00:00", "meta": {"OBJECT_NAME": "FENGYUN 1C DEB", "OBJECT_ID": "1999-025DXJ", "EPOCH": "2025-12-03T06:00:32.935680", "MEAN_MOTION": 13.60174238, "ECCENTRICITY": 0.0288974, "INCLINATION": 99.2571, "RA_OF_ASC_NODE": 259.6936, "ARG_OF_PERICENTER": 135.4221, "MEAN_ANOMALY": 227.0558, "EPHEMERIS_TYPE": 0, "CLASSIFICATION_TYPE": "U", "NORAD_CAT_ID": 36281, "ELEMENT_SET_NO": 999, "REV_AT_EPOCH": 84388, "BSTAR": 0.0032099579, "MEAN_MOTION_DOT": 3.127e-05, "MEAN_MOTION_DDOT": 0}, "tle": {"line1": "1 36281U 99025DXJ 25337.25038120  .00003127  00000+0  32100-2 0  9996", "line2": "2 36281  99.2571 259.6936 0288974 135.4221 227.0558 13.60174238843886"}}, "geometry": {"type": "Point", "coordinates": [76.29089984128588, -22.058441376160907]}}, {"type": "Feature", "properties": {"norad_id": 36283, "name": "FENGYUN 1C DEB", "group": "fengyun-1c-debris", "lat": -46.607414877245745, "lon": -49.12780125508857, "alt_km": 584.5284761343646, "timestamp": "2025-12-03T15:48:03.358266+00:00", "meta": {"OBJECT_NAME": "FENGYUN 1C DEB", "OBJECT_ID": "1999-025DXL", "EPOCH": "2025-11-28T03:35:45.168576", "MEAN_MOTION": 15.05092252, "ECCENTRICITY": 0.00695379, "INCLINATION": 99.4205, "RA_OF_ASC_NODE": 294.0447, "ARG_OF_PERICENTER": 95.6406, "MEAN_ANOMALY": 265.275, "EPHEMERIS_TYPE": 0, "CLASSIFICATION_TYPE": "U", "NORAD_CAT_ID": 36283, "ELEMENT_SET_NO": 999, "REV_AT_EPOCH": 66446, "BSTAR": 0.0018499593, "MEAN_MOTION_DOT": 0.00027782, "MEAN_MOTION_DDOT": 0}, "tle": {"line1": "1 36283U 99025DXL 25332.14982834  .00027782  00000+0  18500-2 0  9992", "line2": "2 36283  99.4205 294.0447 0069537  95.6406 265.2750 15.05092252664467"}}, "geometry": {"type": "Point", "coordinates": [-49.12780125508857, -46.607414877245745]}}, {"type": "Feature", "properties": {"norad_id": 36644, "name": "FENGYUN 1C DEB", "group": "fengyun-1c-debris", "lat": 57.139310725789215, "lon": 104.25823481197233, "alt_km": 1206.9120581082952, "timestamp": "2025-12-03T15:48:03.358275+00:00", "meta": {"OBJECT_NAME": "FENGYUN 1C DEB", "OBJECT_ID": "1999-025DXN", "EPOCH": "2025-11-26T15:39:07.759296", "MEAN_MOTION": 13.59124847, "ECCENTRICITY": 0.02860442, "INCLINATION": 98.4214, "RA_OF_ASC_NODE": 111.4857, "ARG_OF_PERICENTER": 222.436, "MEAN_ANOMALY": 135.4347, "EPHEMERIS_TYPE": 0, "CLASSIFICATION_TYPE": "U", "NORAD_CAT_ID": 36644, "ELEMENT_SET_NO": 999, "REV_AT_EPOCH": 61349, "BSTAR": 0.0017692716, "MEAN_MOTION_DOT": 1.666e-05, "MEAN_MOTION_DDOT": 0}, "tle": {"line1": "1 36644U 99025DXN 25330.65217314  .00001666  00000+0  17693-2 0  9996", "line2": "2 36644  98.4214 111.4857 0286044 222.4360 135.4347 13.59124847613497"}}, "geometry": {"type": "Point", "coordinates": [104.25823481197233, 57.139310725789215]}}]}